[
    {
        "Altitude(m)": 554417.135627317,
        "Argument of Periapsis(deg)": 0.0,
        "Eccentricity": 0.0,
        "Inclination(deg)": 53.0,
        "Latitude(deg)": 25.652314690018354,
        "Longitude(deg)": 98.93632505255373,
        "Mean Anomaly(deg)": 147.2727,
        "RAAN(deg)": 40.0,
        "Satellite Name": "Starlink Shell 1 185",
        "Satellite Number": 185,
        "Semi-Major Axis(m)": 6931778.249405717,
        "Time(s)": 0
    },
    {
        "Altitude(m)": 554357.0854158681,
        "Argument of Periapsis(deg)": 0.00034857847951123687,
        "Eccentricity": 0.0,
        "Inclination(deg)": 53.0,
        "Latitude(deg)": 25.18208911315145,
        "Longitude(deg)": 99.35632069438651,
        "Mean Anomaly(deg)": 147.8995312035567,
        "RAAN(deg)": 39.99948122992253,
        "Satellite Name": "Starlink Shell 1 185",
        "Satellite Number": 185,
        "Semi-Major Axis(m)": 6931778.249405717,
        "Time(s)": 10
    },
    {
        "Altitude(m)": 554298.6320155002,
        "Argument of Periapsis(deg)": 0.0006971569590224737,
        "Eccentricity": 0.0,
        "Inclination(deg)": 53.0,
        "Latitude(deg)": 24.71040765754521,
        "Longitude(deg)": 99.77278644926578,
        "Mean Anomaly(deg)": 148.52636240711345,
        "RAAN(deg)": 39.99896245984505,
        "Satellite Name": "Starlink Shell 1 185",
        "Satellite Number": 185,
        "Semi-Major Axis(m)": 6931778.249405717,
        "Time(s)": 20
    },
    {
        "Altitude(m)": 554241.823754392,
        "Argument of Periapsis(deg)": 0.0010457354385337105,
        "Eccentricity": 0.0,
        "Inclination(deg)": 53.0,
        "Latitude(deg)": 24.237311516390818,
        "Longitude(deg)": 100.18581310899091,
        "Mean Anomaly(deg)": 149.15319361067014,
        "RAAN(deg)": 39.99844368976758,
        "Satellite Name": "Starlink Shell 1 185",
        "Satellite Number": 185,
        "Semi-Major Axis(m)": 6931778.249405717,
        "Time(s)": 30
    },
    {
        "Altitude(m)": 554186.7083088056,
        "Argument of Periapsis(deg)": 0.0013943139180449475,
        "Eccentricity": 0.0,
        "Inclination(deg)": 53.0,
        "Latitude(deg)": 23.762841048185635,
        "Longitude(deg)": 100.59549070800988,
        "Mean Anomaly(deg)": 149.7800248142268,
        "RAAN(deg)": 39.997924919690114,
        "Satellite Name": "Starlink Shell 1 185",
        "Satellite Number": 185,
        "Semi-Major Axis(m)": 6931778.249405717,
        "Time(s)": 40
    },
    {
        "Altitude(m)": 554133.3326772675,
        "Argument of Periapsis(deg)": 0.0017428923975561844,
        "Eccentricity": 0.0,
        "Inclination(deg)": 53.0,
        "Latitude(deg)": 23.28703580280539,
        "Longitude(deg)": 101.00190753108431,
        "Mean Anomaly(deg)": 150.40685601778355,
        "RAAN(deg)": 39.99740614961264,
        "Satellite Name": "Starlink Shell 1 185",
        "Satellite Number": 185,
        "Semi-Major Axis(m)": 6931778.249405717,
        "Time(s)": 50
    },
    {
        "Altitude(m)": 554081.7431550627,
        "Argument of Periapsis(deg)": 0.002091470877067421,
        "Eccentricity": 0.0,
        "Inclination(deg)": 53.0,
        "Latitude(deg)": 22.809934547045145,
        "Longitude(deg)": 101.4051506352028,
        "Mean Anomaly(deg)": 151.0336872213403,
        "RAAN(deg)": 39.99688737953517,
        "Satellite Name": "Starlink Shell 1 185",
        "Satellite Number": 185,
        "Semi-Major Axis(m)": 6931778.249405717,
        "Time(s)": 60
    },
    {
        "Altitude(m)": 554031.9853090101,
        "Argument of Periapsis(deg)": 0.0024400493565786582,
        "Eccentricity": 0.0,
        "Inclination(deg)": 53.0,
        "Latitude(deg)": 22.3315752896293,
        "Longitude(deg)": 101.80530637273449,
        "Mean Anomaly(deg)": 151.660518424897,
        "RAAN(deg)": 39.9963686094577,
        "Satellite Name": "Starlink Shell 1 185",
        "Satellite Number": 185,
        "Semi-Major Axis(m)": 6931778.249405717,
        "Time(s)": 70
    },
    {
        "Altitude(m)": 553984.103952588,
        "Argument of Periapsis(deg)": 0.002788627836089895,
        "Eccentricity": 0.0,
        "Inclination(deg)": 53.0,
        "Latitude(deg)": 21.851995305695993,
        "Longitude(deg)": 102.20245940282253,
        "Mean Anomaly(deg)": 152.2873496284537,
        "RAAN(deg)": 39.99584983938022,
        "Satellite Name": "Starlink Shell 1 185",
        "Satellite Number": 185,
        "Semi-Major Axis(m)": 6931778.249405717,
        "Time(s)": 80
    },
    {
        "Altitude(m)": 553938.1431214121,
        "Argument of Periapsis(deg)": 0.0031372063156011316,
        "Eccentricity": 0.0,
        "Inclination(deg)": 53.0,
        "Latitude(deg)": 21.37123116075816,
        "Longitude(deg)": 102.59669321665096,
        "Mean Anomaly(deg)": 152.91418083201043,
        "RAAN(deg)": 39.99533106930275,
        "Satellite Name": "Starlink Shell 1 185",
        "Satellite Number": 185,
        "Semi-Major Axis(m)": 6931778.249405717,
        "Time(s)": 90
    },
    {
        "Altitude(m)": 553894.1460490254,
        "Argument of Periapsis(deg)": 0.0034857847951123688,
        "Eccentricity": 0.0,
        "Inclination(deg)": 53.0,
        "Latitude(deg)": 20.88931873414751,
        "Longitude(deg)": 102.98809066360502,
        "Mean Anomaly(deg)": 153.54101203556715,
        "RAAN(deg)": 39.994812299225266,
        "Satellite Name": "Starlink Shell 1 185",
        "Satellite Number": 185,
        "Semi-Major Axis(m)": 6931778.249405717,
        "Time(s)": 100
    },
    {
        "Altitude(m)": 553852.1551431031,
        "Argument of Periapsis(deg)": 0.003834363274623606,
        "Eccentricity": 0.0,
        "Inclination(deg)": 53.0,
        "Latitude(deg)": 20.406293241948102,
        "Longitude(deg)": 103.37673296534997,
        "Mean Anomaly(deg)": 154.16784323912384,
        "RAAN(deg)": 39.9942935291478,
        "Satellite Name": "Starlink Shell 1 185",
        "Satellite Number": 185,
        "Semi-Major Axis(m)": 6931778.249405717,
        "Time(s)": 110
    },
    {
        "Altitude(m)": 553812.2119619963,
        "Argument of Periapsis(deg)": 0.004182941754134842,
        "Eccentricity": 0.0,
        "Inclination(deg)": 53.0,
        "Latitude(deg)": 19.9221892594263,
        "Longitude(deg)": 103.76270024348784,
        "Mean Anomaly(deg)": 154.79467444268056,
        "RAAN(deg)": 39.99377475907033,
        "Satellite Name": "Starlink Shell 1 185",
        "Satellite Number": 185,
        "Semi-Major Axis(m)": 6931778.249405717,
        "Time(s)": 120
    },
    {
        "Altitude(m)": 553774.3571917029,
        "Argument of Periapsis(deg)": 0.004531520233646079,
        "Eccentricity": 0.0,
        "Inclination(deg)": 53.0,
        "Latitude(deg)": 19.437040742966087,
        "Longitude(deg)": 104.14607204783302,
        "Mean Anomaly(deg)": 155.42150564623728,
        "RAAN(deg)": 39.99325598899285,
        "Satellite Name": "Starlink Shell 1 185",
        "Satellite Number": 185,
        "Semi-Major Axis(m)": 6931778.249405717,
        "Time(s)": 130
    },
    {
        "Altitude(m)": 553738.6306232106,
        "Argument of Periapsis(deg)": 0.0048800987131573164,
        "Eccentricity": 0.0,
        "Inclination(deg)": 53.0,
        "Latitude(deg)": 18.9508810515179,
        "Longitude(deg)": 104.5269263723567,
        "Mean Anomaly(deg)": 156.048336849794,
        "RAAN(deg)": 39.99273721891538,
        "Satellite Name": "Starlink Shell 1 185",
        "Satellite Number": 185,
        "Semi-Major Axis(m)": 6931778.249405717,
        "Time(s)": 140
    },
    {
        "Altitude(m)": 553705.0711302835,
        "Argument of Periapsis(deg)": 0.005228677192668553,
        "Eccentricity": 0.0,
        "Inclination(deg)": 53.0,
        "Latitude(deg)": 18.463742967571335,
        "Longitude(deg)": 104.90534018447661,
        "Mean Anomaly(deg)": 156.67516805335072,
        "RAAN(deg)": 39.99221844883791,
        "Satellite Name": "Starlink Shell 1 185",
        "Satellite Number": 185,
        "Semi-Major Axis(m)": 6931778.249405717,
        "Time(s)": 150
    },
    {
        "Altitude(m)": 553673.716647662,
        "Argument of Periapsis(deg)": 0.00557725567217979,
        "Eccentricity": 0.0,
        "Inclination(deg)": 53.0,
        "Latitude(deg)": 17.97565871766089,
        "Longitude(deg)": 105.28138995475499,
        "Mean Anomaly(deg)": 157.30199925690744,
        "RAAN(deg)": 39.99169967876043,
        "Satellite Name": "Starlink Shell 1 185",
        "Satellite Number": 185,
        "Semi-Major Axis(m)": 6931778.249405717,
        "Time(s)": 160
    },
    {
        "Altitude(m)": 553644.6041497203,
        "Argument of Periapsis(deg)": 0.0059258341516910265,
        "Eccentricity": 0.0,
        "Inclination(deg)": 53.0,
        "Latitude(deg)": 17.4866599924165,
        "Longitude(deg)": 105.65515067407007,
        "Mean Anomaly(deg)": 157.92883046046416,
        "RAAN(deg)": 39.99118090868296,
        "Satellite Name": "Starlink Shell 1 185",
        "Satellite Number": 185,
        "Semi-Major Axis(m)": 6931778.249405717,
        "Time(s)": 170
    },
    {
        "Altitude(m)": 553617.7696295467,
        "Argument of Periapsis(deg)": 0.006274412631202263,
        "Eccentricity": 0.0,
        "Inclination(deg)": 53.0,
        "Latitude(deg)": 16.996777966168967,
        "Longitude(deg)": 106.02669638395676,
        "Mean Anomaly(deg)": 158.55566166402087,
        "RAAN(deg)": 39.990662138605494,
        "Satellite Name": "Starlink Shell 1 185",
        "Satellite Number": 185,
        "Semi-Major Axis(m)": 6931778.249405717,
        "Time(s)": 180
    }
]